start=new Date('2023-01-07T00:00:00.000Z').valueOf();
sats=[{"ELEMENT_SET_NO":"999","CLASSIFICATION_TYPE":"U","ECCENTRICITY":"0.00016890","EPOCH":"2023-01-06T08:49:22.874304","GP_ID":"222343358","MEAN_ANOMALY":"287.2049","OBJECT_NAME":"STARLINK-2530","SEMIMAJOR_AXIS":"6925.353","CENTER_NAME":"EARTH","BSTAR":"0.00006238100000","ARG_OF_PERICENTER":"72.9125","MEAN_ELEMENT_THEORY":"SGP4","RCS_SIZE":"LARGE","EPHEMERIS_TYPE":"0","TLE_LINE2":"2 48303  53.0543 251.5278 0001689  72.9125 287.2049 15.06398628 93585","TLE_LINE1":"1 48303U 21036AD  23006.36762586  .00000648  00000-0  62381-4 0  9996","MEAN_MOTION_DDOT":"0.0000000000000","MEAN_MOTION_DOT":"0.00000648","SITE":"AFETR","MEAN_MOTION":"15.06398628","OBJECT_TYPE":"PAYLOAD","DECAY_DATE":null,"OBJECT_ID":"2021-036AD","INCLINATION":"53.0543","FILE":"3734255","REV_AT_EPOCH":"9358","COUNTRY_CODE":"US","LAUNCH_DATE":"2021-04-29","PERIOD":"95.592","RA_OF_ASC_NODE":"251.5278","REF_FRAME":"TEME","PERIAPSIS":"546.048","TIME_SYSTEM":"UTC","APOAPSIS":"548.387","NORAD_CAT_ID":"48303"},{"SEMIMAJOR_AXIS":"6925.394","OBJECT_NAME":"STARLINK-2524","CENTER_NAME":"EARTH","BSTAR":"-0.00020056000000","ECCENTRICITY":"0.00017420","CLASSIFICATION_TYPE":"U","ELEMENT_SET_NO":"999","EPOCH":"2023-01-06T16:43:08.590080","MEAN_ANOMALY":"298.3469","GP_ID":"222341607","OBJECT_ID":"2021-036AE","DECAY_DATE":null,"SITE":"AFETR","OBJECT_TYPE":"PAYLOAD","MEAN_MOTION":"15.06385016","COUNTRY_CODE":"US","REV_AT_EPOCH":"9363","FILE":"3734255","INCLINATION":"53.0557","PERIAPSIS":"546.053","REF_FRAME":"TEME","RA_OF_ASC_NODE":"250.0524","LAUNCH_DATE":"2021-04-29","PERIOD":"95.593","NORAD_CAT_ID":"48304","APOAPSIS":"548.466","TIME_SYSTEM":"UTC","MEAN_ELEMENT_THEORY":"SGP4","ARG_OF_PERICENTER":"61.7695","TLE_LINE2":"2 48304  53.0557 250.0524 0001742  61.7695 298.3469 15.06385016 93639","EPHEMERIS_TYPE":"0","RCS_SIZE":"LARGE","MEAN_MOTION_DOT":"-0.00003266","TLE_LINE1":"1 48304U 21036AE  23006.69662720 -.00003266  00000-0 -20056-3 0  9995","MEAN_MOTION_DDOT":"0.0000000000000"},{"GP_ID":"222341857","MEAN_ANOMALY":"279.4235","EPOCH":"2023-01-06T19:47:34.795392","CLASSIFICATION_TYPE":"U","ELEMENT_SET_NO":"999","ECCENTRICITY":"0.00012440","BSTAR":"0.00121580000000","CENTER_NAME":"EARTH","OBJECT_NAME":"STARLINK-2519","SEMIMAJOR_AXIS":"6925.367","MEAN_MOTION_DOT":"0.00017871","MEAN_MOTION_DDOT":"0.0000000000000","TLE_LINE1":"1 48305U 21036AF  23006.82470828  .00017871  00000-0  12158-2 0  9995","RCS_SIZE":"LARGE","TLE_LINE2":"2 48305  53.0520 249.4693 0001244  80.6894 279.4235 15.06393883 93651","EPHEMERIS_TYPE":"0","ARG_OF_PERICENTER":"80.6894","MEAN_ELEMENT_THEORY":"SGP4","TIME_SYSTEM":"UTC","NORAD_CAT_ID":"48305","APOAPSIS":"548.094","RA_OF_ASC_NODE":"249.4693","PERIOD":"95.593","LAUNCH_DATE":"2021-04-29","PERIAPSIS":"546.371","REF_FRAME":"TEME","FILE":"3734255","INCLINATION":"53.0520","COUNTRY_CODE":"US","REV_AT_EPOCH":"9365","DECAY_DATE":null,"OBJECT_TYPE":"PAYLOAD","SITE":"AFETR","MEAN_MOTION":"15.06393883","OBJECT_ID":"2021-036AF"},{"REV_AT_EPOCH":"9407","COUNTRY_CODE":"US","INCLINATION":"53.0550","FILE":"3733089","OBJECT_ID":"2021-036AG","SITE":"AFETR","OBJECT_TYPE":"PAYLOAD","MEAN_MOTION":"15.06428260","DECAY_DATE":null,"APOAPSIS":"548.461","NORAD_CAT_ID":"48306","TIME_SYSTEM":"UTC","REF_FRAME":"TEME","PERIAPSIS":"545.792","LAUNCH_DATE":"2021-04-29","PERIOD":"95.590","RA_OF_ASC_NODE":"254.5640","EPHEMERIS_TYPE":"0","TLE_LINE2":"2 48306  53.0550 254.5640 0001927  73.2699 286.8502 15.06428260 94077","RCS_SIZE":"LARGE","MEAN_ELEMENT_THEORY":"SGP4","ARG_OF_PERICENTER":"73.2699","TLE_LINE1":"1 48306U 21036AG  23005.69403568  .00007971  00000-0  55299-3 0  9991","MEAN_MOTION_DDOT":"0.0000000000000","MEAN_MOTION_DOT":"0.00007971","CENTER_NAME":"EARTH","SEMIMAJOR_AXIS":"6925.262","OBJECT_NAME":"STARLINK-2523","BSTAR":"0.00055299000000","EPOCH":"2023-01-05T16:39:24.682752","ECCENTRICITY":"0.00019270","ELEMENT_SET_NO":"999","CLASSIFICATION_TYPE":"U","MEAN_ANOMALY":"286.8502","GP_ID":"222295978"},{"OBJECT_ID":"2021-036AH","DECAY_DATE":null,"MEAN_MOTION":"15.06380867","SITE":"AFETR","OBJECT_TYPE":"PAYLOAD","COUNTRY_CODE":"US","REV_AT_EPOCH":"9363","FILE":"3734255","INCLINATION":"53.0535","PERIAPSIS":"546.177","REF_FRAME":"TEME","RA_OF_ASC_NODE":"250.1124","PERIOD":"95.593","LAUNCH_DATE":"2021-04-29","NORAD_CAT_ID":"48307","APOAPSIS":"548.367","TIME_SYSTEM":"UTC","MEAN_ELEMENT_THEORY":"SGP4","ARG_OF_PERICENTER":"73.2413","TLE_LINE2":"2 48307  53.0535 250.1124 0001581  73.2413 286.8750 15.06380867 93636","EPHEMERIS_TYPE":"0","RCS_SIZE":"LARGE","MEAN_MOTION_DOT":"-0.00006852","MEAN_MOTION_DDOT":"0.0000000000000","TLE_LINE1":"1 48307U 21036AH  23006.68556728 -.00006852  00000-0 -44176-3 0  9990","SEMIMAJOR_AXIS":"6925.407","OBJECT_NAME":"STARLINK-2528","CENTER_NAME":"EARTH","BSTAR":"-0.00044176000000","ECCENTRICITY":"0.00015810","CLASSIFICATION_TYPE":"U","ELEMENT_SET_NO":"999","EPOCH":"2023-01-06T16:27:13.012992","MEAN_ANOMALY":"286.8750","GP_ID":"222342859"},{"EPOCH":"2023-01-06T16:21:54.687744","ECCENTRICITY":"0.00012390","CLASSIFICATION_TYPE":"U","ELEMENT_SET_NO":"999","MEAN_ANOMALY":"248.7474","GP_ID":"222342107","CENTER_NAME":"EARTH","SEMIMAJOR_AXIS":"6925.382","OBJECT_NAME":"STARLINK-2532","BSTAR":"-0.00023299000000","TLE_LINE2":"2 48308  53.0532 250.1209 0001239 111.3647 248.7474 15.06389019 93639","EPHEMERIS_TYPE":"0","RCS_SIZE":"LARGE","MEAN_ELEMENT_THEORY":"SGP4","ARG_OF_PERICENTER":"111.3647","MEAN_MOTION_DOT":"-0.00003749","MEAN_MOTION_DDOT":"0.0000000000000","TLE_LINE1":"1 48308U 21036AJ  23006.68188296 -.00003749  00000-0 -23299-3 0  9997","REV_AT_EPOCH":"9363","COUNTRY_CODE":"US","FILE":"3734255","INCLINATION":"53.0532","OBJECT_ID":"2021-036AJ","DECAY_DATE":null,"OBJECT_TYPE":"PAYLOAD","SITE":"AFETR","MEAN_MOTION":"15.06389019","NORAD_CAT_ID":"48308","APOAPSIS":"548.105","TIME_SYSTEM":"UTC","PERIAPSIS":"546.389","REF_FRAME":"TEME","RA_OF_ASC_NODE":"250.1209","LAUNCH_DATE":"2021-04-29","PERIOD":"95.593"},{"EPHEMERIS_TYPE":"0","TLE_LINE2":"2 48309  53.0531 250.1405 0001414  96.0738 264.0413 15.06392766 93639","RCS_SIZE":"LARGE","MEAN_ELEMENT_THEORY":"SGP4","ARG_OF_PERICENTER":"96.0738","TLE_LINE1":"1 48309U 21036AK  23006.67820169 -.00002064  00000-0 -11976-3 0  9997","MEAN_MOTION_DDOT":"0.0000000000000","MEAN_MOTION_DOT":"-0.00002064","COUNTRY_CODE":"US","REV_AT_EPOCH":"9363","INCLINATION":"53.0531","FILE":"3734255","OBJECT_ID":"2021-036AK","MEAN_MOTION":"15.06392766","SITE":"AFETR","OBJECT_TYPE":"PAYLOAD","DECAY_DATE":null,"APOAPSIS":"548.215","NORAD_CAT_ID":"48309","TIME_SYSTEM":"UTC","REF_FRAME":"TEME","PERIAPSIS":"546.256","LAUNCH_DATE":"2021-04-29","PERIOD":"95.593","RA_OF_ASC_NODE":"250.1405","EPOCH":"2023-01-06T16:16:36.626016","ECCENTRICITY":"0.00014140","ELEMENT_SET_NO":"999","CLASSIFICATION_TYPE":"U","MEAN_ANOMALY":"264.0413","GP_ID":"222342357","CENTER_NAME":"EARTH","SEMIMAJOR_AXIS":"6925.371","OBJECT_NAME":"STARLINK-2517","BSTAR":"-0.00011976000000"},{"APOAPSIS":"548.262","NORAD_CAT_ID":"48310","TIME_SYSTEM":"UTC","REF_FRAME":"TEME","PERIAPSIS":"546.139","LAUNCH_DATE":"2021-04-29","PERIOD":"95.592","RA_OF_ASC_NODE":"249.2659","COUNTRY_CODE":"US","REV_AT_EPOCH":"9366","INCLINATION":"53.0505","FILE":"3734255","OBJECT_ID":"2021-036AL","OBJECT_TYPE":"PAYLOAD","SITE":"AFETR","MEAN_MOTION":"15.06404302","DECAY_DATE":null,"MEAN_MOTION_DDOT":"0.0000000000000","TLE_LINE1":"1 48310U 21036AL  23006.87357949  .00031223  00000-0  21055-2 0  9997","MEAN_MOTION_DOT":"0.00031223","EPHEMERIS_TYPE":"0","TLE_LINE2":"2 48310  53.0505 249.2659 0001533  68.9818 291.1335 15.06404302 93668","RCS_SIZE":"LARGE","MEAN_ELEMENT_THEORY":"SGP4","ARG_OF_PERICENTER":"68.9818","BSTAR":"0.00210550000000","CENTER_NAME":"EARTH","SEMIMAJOR_AXIS":"6925.335","OBJECT_NAME":"STARLINK-2536","MEAN_ANOMALY":"291.1335","GP_ID":"222342609","EPOCH":"2023-01-06T20:57:57.267936","ECCENTRICITY":"0.00015330","ELEMENT_SET_NO":"999","CLASSIFICATION_TYPE":"U"},{"BSTAR":"0.00079873000000","SEMIMAJOR_AXIS":"6925.355","OBJECT_NAME":"STARLINK-2534","CENTER_NAME":"EARTH","MEAN_ANOMALY":"268.6474","GP_ID":"222343359","ECCENTRICITY":"0.00015430","CLASSIFICATION_TYPE":"U","ELEMENT_SET_NO":"999","EPOCH":"2023-01-06T16:06:00.371232","PERIAPSIS":"546.152","REF_FRAME":"TEME","RA_OF_ASC_NODE":"250.1677","PERIOD":"95.592","LAUNCH_DATE":"2021-04-29","NORAD_CAT_ID":"48311","APOAPSIS":"548.289","TIME_SYSTEM":"UTC","OBJECT_ID":"2021-036AM","DECAY_DATE":null,"MEAN_MOTION":"15.06397863","SITE":"AFETR","OBJECT_TYPE":"PAYLOAD","REV_AT_EPOCH":"9363","COUNTRY_CODE":"US","FILE":"3734255","INCLINATION":"53.0532","MEAN_MOTION_DOT":"0.00011635","TLE_LINE1":"1 48311U 21036AM  23006.67083763  .00011635  00000-0  79873-3 0  9993","MEAN_MOTION_DDOT":"0.0000000000000","MEAN_ELEMENT_THEORY":"SGP4","ARG_OF_PERICENTER":"91.4692","TLE_LINE2":"2 48311  53.0532 250.1677 0001543  91.4692 268.6474 15.06397863 93635","EPHEMERIS_TYPE":"0","RCS_SIZE":"LARGE"},{"EPHEMERIS_TYPE":"0","TLE_LINE2":"2 48312  53.0527 249.5947 0001503  83.8155 276.3006 15.06385498 93657","RCS_SIZE":"LARGE","MEAN_ELEMENT_THEORY":"SGP4","ARG_OF_PERICENTER":"83.8155","TLE_LINE1":"1 48312U 21036AN  23006.79984475 -.00002756  00000-0 -16626-3 0  9990","MEAN_MOTION_DDOT":"0.0000000000000","MEAN_MOTION_DOT":"-0.00002756","REV_AT_EPOCH":"9365","COUNTRY_CODE":"US","INCLINATION":"53.0527","FILE":"3734255","OBJECT_ID":"2021-036AN","SITE":"AFETR","OBJECT_TYPE":"PAYLOAD","MEAN_MOTION":"15.06385498","DECAY_DATE":null,"APOAPSIS":"548.299","NORAD_CAT_ID":"48312","TIME_SYSTEM":"UTC","REF_FRAME":"TEME","PERIAPSIS":"546.217","LAUNCH_DATE":"2021-04-29","PERIOD":"95.593","RA_OF_ASC_NODE":"249.5947","EPOCH":"2023-01-06T19:11:46.586400","ECCENTRICITY":"0.00015030","ELEMENT_SET_NO":"999","CLASSIFICATION_TYPE":"U","MEAN_ANOMALY":"276.3006","GP_ID":"222341608","CENTER_NAME":"EARTH","SEMIMAJOR_AXIS":"6925.393","OBJECT_NAME":"STARLINK-2061","BSTAR":"-0.00016626000000"}];
